{
  "type": "FeatureCollection",
  "features": [
    {
      "type": "Feature",
      "properties": {
        "norad_id": 29975,
        "name": "FENGYUN 1C DEB",
        "group": "fengyun-1c-debris",
        "lat": -41.90993474638649,
        "lon": -145.94902902588095,
        "alt_km": 936.9527309090299,
        "timestamp": "2025-12-27T05:29:39.475824+00:00",
        "meta_object_name": "FENGYUN 1C DEB",
        "meta_object_id": "1999-025KZ",
        "meta_epoch": "2025-12-26T23:38:23.925696",
        "meta_mean_motion": 13.98030809,
        "meta_eccentricity": 0.01130321,
        "meta_inclination": 99.3376,
        "meta_ra_of_asc_node": 42.2953,
        "meta_arg_of_pericenter": 335.0245,
        "meta_mean_anomaly": 101.6824,
        "meta_ephemeris_type": 0,
        "meta_classification_type": "U",
        "meta_norad_cat_id": 29975,
        "meta_element_set_no": 999,
        "meta_rev_at_epoch": 96636,
        "meta_bstar": 0.00025950932,
        "meta_mean_motion_dot": 3.42e-06,
        "meta_mean_motion_ddot": 0,
        "tle_line1": "1 29975U 99025KZ  25360.98499914  .00000342  00000+0  25951-3 0  9999",
        "tle_line2": "2 29975  99.3376  42.2953 0113032 335.0245 101.6824 13.98030809966361"
      },
      "geometry": {
        "type": "Point",
        "coordinates": [
          -145.94902902588095,
          -41.90993474638649
        ]
      }
    },
    {
      "type": "Feature",
      "properties": {
        "norad_id": 29976,
        "name": "FENGYUN 1C DEB",
        "group": "fengyun-1c-debris",
        "lat": 42.48278975274309,
        "lon": -10.12055078085649,
        "alt_km": 1074.0442705013575,
        "timestamp": "2025-12-27T05:29:39.475834+00:00",
        "meta_object_name": "FENGYUN 1C DEB",
        "meta_object_id": "1999-025LA",
        "meta_epoch": "2025-12-26T18:06:35.947872",
        "meta_mean_motion": 13.98130144,
        "meta_eccentricity": 0.02676304,
        "meta_inclination": 98.9203,
        "meta_ra_of_asc_node": 357.6873,
        "meta_arg_of_pericenter": 200.671,
        "meta_mean_anomaly": 337.5971,
        "meta_ephemeris_type": 0,
        "meta_classification_type": "U",
        "meta_norad_cat_id": 29976,
        "meta_element_set_no": 999,
        "meta_rev_at_epoch": 96532,
        "meta_bstar": 0.00043433527,
        "meta_mean_motion_dot": 7.95e-06,
        "meta_mean_motion_ddot": 0,
        "tle_line1": "1 29976U 99025LA  25360.75458273  .00000795  00000+0  43434-3 0  9996",
        "tle_line2": "2 29976  98.9203 357.6873 0267630 200.6710 337.5971 13.98130144965329"
      },
      "geometry": {
        "type": "Point",
        "coordinates": [
          -10.12055078085649,
          42.48278975274309
        ]
      }
    },
    {
      "type": "Feature",
      "properties": {
        "norad_id": 29977,
        "name": "FENGYUN 1C DEB",
        "group": "fengyun-1c-debris",
        "lat": -18.676919993238023,
        "lon": -134.92919090809164,
        "alt_km": 934.1172015729753,
        "timestamp": "2025-12-27T05:29:39.475845+00:00",
        "meta_object_name": "FENGYUN 1C DEB",
        "meta_object_id": "1999-025LB",
        "meta_epoch": "2025-12-15T02:05:24.079200",
        "meta_mean_motion": 14.0509794,
        "meta_eccentricity": 0.0128352,
        "meta_inclination": 98.3968,
        "meta_ra_of_asc_node": 210.9629,
        "meta_arg_of_pericenter": 250.2626,
        "meta_mean_anomaly": 265.3537,
        "meta_ephemeris_type": 0,
        "meta_classification_type": "U",
        "meta_norad_cat_id": 29977,
        "meta_element_set_no": 999,
        "meta_rev_at_epoch": 96393,
        "meta_bstar": 0.001211704,
        "meta_mean_motion_dot": 2.064e-05,
        "meta_mean_motion_ddot": 0,
        "tle_line1": "1 29977U 99025LB  25349.08708425  .00002064  00000+0  12117-2 0  9991",
        "tle_line2": "2 29977  98.3968 210.9629 0128352 250.2626 265.3537 14.05097940963932"
      },
      "geometry": {
        "type": "Point",
        "coordinates": [
          -134.92919090809164,
          -18.676919993238023
        ]
      }
    },
    {
      "type": "Feature",
      "properties": {
        "norad_id": 29978,
        "name": "FENGYUN 1C DEB",
        "group": "fengyun-1c-debris",
        "lat": -55.07502816689812,
        "lon": 64.64623746990478,
        "alt_km": 894.5078415069256,
        "timestamp": "2025-12-27T05:29:39.475855+00:00",
        "meta_object_name": "FENGYUN 1C DEB",
        "meta_object_id": "1999-025LC",
        "meta_epoch": "2025-12-26T15:03:28.517760",
        "meta_mean_motion": 13.95912784,
        "meta_eccentricity": 0.0076242,
        "meta_inclination": 99.0596,
        "meta_ra_of_asc_node": 50.8461,
        "meta_arg_of_pericenter": 14.3978,
        "meta_mean_anomaly": 149.2176,
        "meta_ephemeris_type": 0,
        "meta_classification_type": "U",
        "meta_norad_cat_id": 29978,
        "meta_element_set_no": 999,
        "meta_rev_at_epoch": 96510,
        "meta_bstar": 6.4435e-05,
        "meta_mean_motion_dot": 4.6e-07,
        "meta_mean_motion_ddot": 0,
        "tle_line1": "1 29978U 99025LC  25360.62741340  .00000046  00000+0  64435-4 0  9998",
        "tle_line2": "2 29978  99.0596  50.8461 0076242  14.3978 149.2176 13.95912784965102"
      },
      "geometry": {
        "type": "Point",
        "coordinates": [
          64.64623746990478,
          -55.07502816689812
        ]
      }
    },
    {
      "type": "Feature",
      "properties": {
        "norad_id": 29979,
        "name": "FENGYUN 1C DEB",
        "group": "fengyun-1c-debris",
        "lat": 80.27423710287977,
        "lon": -35.40310481716555,
        "alt_km": 734.3097474974829,
        "timestamp": "2025-12-27T05:29:39.475866+00:00",
        "meta_object_name": "FENGYUN 1C DEB",
        "meta_object_id": "1999-025LD",
        "meta_epoch": "2025-12-26T14:29:37.017024",
        "meta_mean_motion": 14.2599178,
        "meta_eccentricity": 0.0108096,
        "meta_inclination": 98.3694,
        "meta_ra_of_asc_node": 23.1955,
        "meta_arg_of_pericenter": 122.4797,
        "meta_mean_anomaly": 356.4902,
        "meta_ephemeris_type": 0,
        "meta_classification_type": "U",
        "meta_norad_cat_id": 29979,
        "meta_element_set_no": 999,
        "meta_rev_at_epoch": 98271,
        "meta_bstar": 0.00040505,
        "meta_mean_motion_dot": 9.87e-06,
        "meta_mean_motion_ddot": 0,
        "tle_line1": "1 29979U 99025LD  25360.60390066  .00000987  00000+0  40505-3 0  9997",
        "tle_line2": "2 29979  98.3694  23.1955 0108096 122.4797 356.4902 14.25991780982710"
      },
      "geometry": {
        "type": "Point",
        "coordinates": [
          -35.40310481716555,
          80.27423710287977
        ]
      }
    },
    {
      "type": "Feature",
      "properties": {
        "norad_id": 29980,
        "name": "FENGYUN 1C DEB",
        "group": "fengyun-1c-debris",
        "lat": 68.92021071212096,
        "lon": 146.61496408764904,
        "alt_km": 910.3851008444672,
        "timestamp": "2025-12-27T05:29:39.475876+00:00",
        "meta_object_name": "FENGYUN 1C DEB",
        "meta_object_id": "1999-025LE",
        "meta_epoch": "2025-12-26T23:06:08.323776",
        "meta_mean_motion": 14.0632486,
        "meta_eccentricity": 0.00872985,
        "meta_inclination": 98.552,
        "meta_ra_of_asc_node": 169.3409,
        "meta_arg_of_pericenter": 207.2726,
        "meta_mean_anomaly": 316.4973,
        "meta_ephemeris_type": 0,
        "meta_classification_type": "U",
        "meta_norad_cat_id": 29980,
        "meta_element_set_no": 999,
        "meta_rev_at_epoch": 97192,
        "meta_bstar": 0.00012699204,
        "meta_mean_motion_dot": 1.76e-06,
        "meta_mean_motion_ddot": 0,
        "tle_line1": "1 29980U 99025LE  25360.96259634  .00000176  00000+0  12699-3 0  9996",
        "tle_line2": "2 29980  98.5520 169.3409 0087298 207.2726 316.4973 14.06324860971926"
      },
      "geometry": {
        "type": "Point",
        "coordinates": [
          146.61496408764904,
          68.92021071212096
        ]
      }
    },
    {
      "type": "Feature",
      "properties": {
        "norad_id": 29982,
        "name": "FENGYUN 1C DEB",
        "group": "fengyun-1c-debris",
        "lat": 35.36963525285347,
        "lon": 177.86217636915606,
        "alt_km": 743.7872345141486,
        "timestamp": "2025-12-27T05:29:39.475886+00:00",
        "meta_object_name": "FENGYUN 1C DEB",
        "meta_object_id": "1999-025LG",
        "meta_epoch": "2025-12-26T11:34:29.196768",
        "meta_mean_motion": 14.66982094,
        "meta_eccentricity": 0.0121654,
        "meta_inclination": 99.4018,
        "meta_ra_of_asc_node": 183.7615,
        "meta_arg_of_pericenter": 246.2672,
        "meta_mean_anomaly": 168.2119,
        "meta_ephemeris_type": 0,
        "meta_classification_type": "U",
        "meta_norad_cat_id": 29982,
        "meta_element_set_no": 999,
        "meta_rev_at_epoch": 485,
        "meta_bstar": 0.00061124,
        "meta_mean_motion_dot": 3.755e-05,
        "meta_mean_motion_ddot": 0,
        "tle_line1": "1 29982U 99025LG  25360.48228237  .00003755  00000+0  61124-3 0  9993",
        "tle_line2": "2 29982  99.4018 183.7615 0121654 246.2672 168.2119 14.66982094  4856"
      },
      "geometry": {
        "type": "Point",
        "coordinates": [
          177.86217636915606,
          35.36963525285347
        ]
      }
    }
  ]
}